NORAD_CAT_ID,OBJECT_NAME,OBJECT_TYPE,EPOCH,MEAN_MOTION,ECCENTRICITY,INCLINATION,RA_OF_ASC_NODE,ARG_OF_PERICENTER,MEAN_ANOMALY,BSTAR,MEAN_MOTION_DOT,MEAN_MOTION_DDOT,TLE_LINE0,TLE_LINE1,TLE_LINE2,SEMIMAJOR_AXIS,PERIOD,APOGEE,PERIGEE,DECAYED
55317.0,STARLINK-5265,PAYLOAD,2024-02-04 11:58:15,14.98330107,0.0002496,70.0014,131.2915,262.5025,97.585,-3.4794e-05,-5.08e-06,0.0,0 STARLINK-5265,1 55317U 23010BA  24035.49879382 -.00000508  00000-0 -34794-4 0  9997,2 55317  70.0014 131.2915 0002496 262.5025  97.5850 14.98330107 58991,6950.193,96.107,573.792,570.323,0.0
55317.0,STARLINK-5265,PAYLOAD,2024-02-04 13:34:23,14.98327757,0.0002773,70.0013,131.1232,267.2851,92.799,4.073e-06,-4.4e-07,0.0,0 STARLINK-5265,1 55317U 23010BA  24035.56555412 -.00000044  00000-0  40730-5 0  9992,2 55317  70.0013 131.1232 0002773 267.2851  92.7990 14.98327757 60181,6950.2,96.107,573.992,570.138,0.0
55317.0,STARLINK-5265,PAYLOAD,2024-02-04 15:10:31,14.98328115,0.0002777,70.0013,130.9549,267.0819,93.0023,9.4281e-06,2e-07,0.0,0 STARLINK-5265,1 55317U 23010BA  24035.63231376  .00000020  00000-0  94281-5 0  9993,2 55317  70.0013 130.9549 0002777 267.0819  93.0023 14.98328115 60196,6950.199,96.107,573.994,570.134,0.0
55317.0,STARLINK-5265,PAYLOAD,2024-02-05 12:00:16,14.98333227,0.0002735,70.0013,128.767,265.3133,94.7714,-7.6458e-06,-1.84e-06,0.0,0 STARLINK-5265,1 55317U 23010BA  24036.50018932 -.00000184  00000-0 -76458-5 0  9990,2 55317  70.0013 128.7670 0002735 265.3133  94.7714 14.98333227 59148,6950.183,96.107,573.949,570.147,0.0
55317.0,STARLINK-5265,PAYLOAD,2024-02-05 13:36:24,14.98333838,0.0002751,70.0009,128.5981,264.0007,96.0839,-1.5401e-06,-1.11e-06,0.0,0 STARLINK-5265,1 55317U 23010BA  24036.56694851 -.00000111  00000-0 -15401-5 0  9997,2 55317  70.0009 128.5981 0002751 264.0007  96.0839 14.98333838 60334,6950.181,96.107,573.958,570.134,0.0
55317.0,STARLINK-5265,PAYLOAD,2024-02-05 15:12:32,14.98334998,0.0002866,70.0008,128.4296,268.5246,91.5585,8.4592e-06,8e-08,0.0,0 STARLINK-5265,1 55317U 23010BA  24036.63370743  .00000008  00000-0  84592-5 0  9996,2 55317  70.0008 128.4296 0002866 268.5246  91.5585 14.98334998 60349,6950.177,96.107,574.034,570.051,0.0
55317.0,STARLINK-5265,PAYLOAD,2024-02-06 12:02:17,14.98331076,0.0002805,70.0008,126.2417,265.8237,94.2602,2.922e-05,2.56e-06,0.0,0 STARLINK-5265,1 55317U 23010BA  24037.50158755  .00000256  00000-0  29220-4 0  9991,2 55317  70.0008 126.2417 0002805 265.8237  94.2602 14.98331076 59299,6950.19,96.107,574.004,570.105,0.0
55317.0,STARLINK-5265,PAYLOAD,2024-02-06 13:38:25,14.98333106,0.0002763,70.0008,126.0734,265.1203,94.9641,5.3459e-05,5.45e-06,0.0,0 STARLINK-5265,1 55317U 23010BA  24037.56834540  .00000545  00000-0  53459-4 0  9992,2 55317  70.0008 126.0734 0002763 265.1203  94.9641 14.98333106 60487,6950.183,96.107,573.969,570.128,0.0
55317.0,STARLINK-5265,PAYLOAD,2024-02-06 15:14:33,14.98333939,0.0002755,70.0009,125.9052,265.1571,94.9273,6.1901e-05,6.46e-06,0.0,0 STARLINK-5265,1 55317U 23010BA  24037.63510449  .00000646  00000-0  61901-4 0  9992,2 55317  70.0009 125.9052 0002755 265.1571  94.9273 14.98333939 60494,6950.181,96.107,573.96,570.131,0.0
55317.0,STARLINK-5265,PAYLOAD,2024-02-07 12:04:18,14.9832891,0.0002636,70.001,123.7169,261.9574,98.1286,-2.8197e-05,-4.29e-06,0.0,0 STARLINK-5265,1 55317U 23010BA  24038.50298927 -.00000429  00000-0 -28197-4 0  9994,2 55317  70.0010 123.7169 0002636 261.9574  98.1286 14.98328910 59442,6950.196,96.107,573.893,570.229,0.0
55317.0,STARLINK-5265,PAYLOAD,2024-02-07 13:40:26,14.98329133,0.000263,70.001,123.5486,261.955,98.131,-2.4909e-05,-3.9e-06,0.0,0 STARLINK-5265,1 55317U 23010BA  24038.56974905 -.00000390  00000-0 -24909-4 0  9991,2 55317  70.0010 123.5486 0002630 261.9550  98.1310 14.98329133 60639,6950.196,96.107,573.888,570.233,0.0
55317.0,STARLINK-5265,PAYLOAD,2024-02-07 15:16:34,14.98330119,0.0002624,70.0011,123.3804,262.1082,97.9779,-1.3425e-05,-2.53e-06,0.0,0 STARLINK-5265,1 55317U 23010BA  24038.63650811 -.00000253  00000-0 -13425-4 0  9995,2 55317  70.0011 123.3804 0002624 262.1082  97.9779 14.98330119 60641,6950.193,96.107,573.881,570.234,0.0
55317.0,STARLINK-5265,PAYLOAD,2024-02-08 12:06:20,14.98319822,0.0002594,70.0011,121.1932,254.738,105.3492,-0.00013566,-1.711e-05,0.0,0 STARLINK-5265,1 55317U 23010BA  24039.50439973 -.00001711  00000-0 -13566-3 0  9991,2 55317  70.0011 121.1932 0002594 254.7380 105.3492 14.98319822 59599,6950.224,96.108,573.892,570.286,0.0
55317.0,STARLINK-5265,PAYLOAD,2024-02-08 13:42:28,14.98319397,0.0002598,70.0011,121.0249,255.2006,104.8865,-0.00013813,-1.74e-05,0.0,0 STARLINK-5265,1 55317U 23010BA  24039.57116051 -.00001740  00000-0 -13813-3 0  9994,2 55317  70.0011 121.0249 0002598 255.2006 104.8865 14.98319397 60782,6950.226,96.108,573.896,570.285,0.0
55317.0,STARLINK-5265,PAYLOAD,2024-02-08 15:18:36,14.98319819,0.0002599,70.0011,120.8567,255.4724,104.6147,-0.00013139,-1.66e-05,0.0,0 STARLINK-5265,1 55317U 23010BA  24039.63792049 -.00001660  00000-0 -13139-3 0  9990,2 55317  70.0011 120.8567 0002599 255.4724 104.6147 14.98319819 60793,6950.224,96.108,573.896,570.283,0.0
55317.0,STARLINK-5265,PAYLOAD,2024-02-09 12:08:19,14.98340971,0.0003223,69.9992,118.666,274.9619,85.1172,0.00012546,1.405e-05,0.0,0 STARLINK-5265,1 55317U 23010BA  24040.50578018  .00001405  00000-0  12546-3 0  9992,2 55317  69.9992 118.6660 0003223 274.9619  85.1172 14.98340971 59748,6950.159,96.106,574.264,569.784,0.0
55317.0,STARLINK-5265,PAYLOAD,2024-02-09 13:44:27,14.98342968,0.0002846,70.0001,118.4993,265.3188,94.7646,0.00015332,1.737e-05,0.0,0 STARLINK-5265,1 55317U 23010BA  24040.57253720  .00001737  00000-0  15332-3 0  9993,2 55317  70.0001 118.4993 0002846 265.3188  94.7646 14.98342968 60937,6950.153,96.106,573.996,570.04,0.0
55317.0,STARLINK-5265,PAYLOAD,2024-02-10 04:09:40,14.98326163,0.0002003,70.0025,116.9862,247.6769,112.4178,0.00018518,2.117e-05,0.0,0 STARLINK-5265,1 55317U 23010BA  24041.17338524  .00002117  00000-0  18518-3 0  9998,2 55317  70.0025 116.9862 0002003 247.6769 112.4178 14.98326163 59849,6950.205,96.107,573.462,570.678,0.0
55317.0,STARLINK-5265,PAYLOAD,2024-02-10 12:10:21,14.98319123,0.0002244,70.0014,116.1433,257.6857,102.4051,7.7083e-05,8.27e-06,0.0,0 STARLINK-5265,1 55317U 23010BA  24041.50719410  .00000827  00000-0  77083-4 0  9991,2 55317  70.0014 116.1433 0002244 257.6857 102.4051 14.98319123 59891,6950.227,96.108,573.651,570.532,0.0
55317.0,STARLINK-5265,PAYLOAD,2024-02-10 13:46:29,14.98319847,0.0002248,70.0014,115.9751,258.7155,101.3751,8.42e-05,9.12e-06,0.0,0 STARLINK-5265,1 55317U 23010BA  24041.57395392  .00000912  00000-0  84200-4 0  9991,2 55317  70.0014 115.9751 0002248 258.7155 101.3751 14.98319847 61080,6950.224,96.108,573.652,570.527,0.0
55317.0,STARLINK-5265,PAYLOAD,2024-02-10 15:22:37,14.98319557,0.000216,70.0017,115.8071,254.5796,105.5124,7.6726e-05,8.22e-06,0.0,0 STARLINK-5265,1 55317U 23010BA  24041.64071458  .00000822  00000-0  76726-4 0  9997,2 55317  70.0017 115.8071 0002160 254.5796 105.5124 14.98319557 61094,6950.225,96.108,573.591,570.589,0.0
55317.0,STARLINK-5265,PAYLOAD,2024-02-11 04:11:41,14.9833728,0.0002361,70.0012,114.4603,258.73,101.3594,-9.8251e-05,-1.265e-05,0.0,0 STARLINK-5265,1 55317U 23010BA  24042.17478814 -.00001265  00000-0 -98251-4 0  9994,2 55317  70.0012 114.4603 0002361 258.7300 101.3594 14.98337280 59999,6950.17,96.107,573.676,570.394,0.0
55317.0,STARLINK-5265,PAYLOAD,2024-02-11 13:48:29,14.98335913,0.0002527,70.0009,113.4501,257.9494,102.1381,-6.156e-05,-8.27e-06,0.0,0 STARLINK-5265,1 55317U 23010BA  24042.57534614 -.00000827  00000-0 -61560-4 0  9995,2 55317  70.0009 113.4501 0002527 257.9494 102.1381 14.98335913 61234,6950.175,96.107,573.796,570.283,0.0
55317.0,STARLINK-5265,PAYLOAD,2024-02-12 04:13:41,14.9833501,0.0002668,70.0007,111.935,258.9561,101.1298,9.6571e-05,1.06e-05,0.0,0 STARLINK-5265,1 55317U 23010BA  24043.17617915  .00001060  00000-0  96571-4 0  9996,2 55317  70.0007 111.9350 0002668 258.9561 101.1298 14.98335010 60142,6950.177,96.107,573.897,570.188,0.0
55317.0,STARLINK-5265,PAYLOAD,2024-02-12 13:50:30,14.98336913,0.0002769,70.0003,110.925,265.5341,94.5502,9.7074e-05,1.066e-05,0.0,0 STARLINK-5265,1 55317U 23010BA  24043.57673684  .00001066  00000-0  97074-4 0  9990,2 55317  70.0003 110.9250 0002769 265.5341  94.5502 14.98336913 61381,6950.172,96.107,573.961,570.112,0.0
55317.0,STARLINK-5265,PAYLOAD,2024-02-13 04:15:43,14.98328936,0.0001933,70.0021,109.4115,270.4906,89.6031,2.935e-05,2.57e-06,0.0,0 STARLINK-5265,1 55317U 23010BA  24044.17758516  .00000257  00000-0  29350-4 0  9998,2 55317  70.0021 109.4115 0001933 270.4906  89.6031 14.98328936 60295,6950.196,96.107,573.405,570.718,0.0
55317.0,STARLINK-5265,PAYLOAD,2024-02-13 12:16:24,14.98322374,0.0002649,70.0013,108.5698,265.4641,94.6216,-5.8106e-05,-7.86e-06,0.0,0 STARLINK-5265,1 55317U 23010BA  24044.51139127 -.00000786  00000-0 -58106-4 0  9997,2 55317  70.0013 108.5698 0002649 265.4641  94.6216 14.98322374 60344,6950.216,96.107,573.923,570.24,0.0
55317.0,STARLINK-5265,PAYLOAD,2024-02-13 13:52:32,14.98322477,0.0002664,70.0012,108.4015,265.8757,94.2098,-6.8575e-05,-9.11e-06,0.0,0 STARLINK-5265,1 55317U 23010BA  24044.57815154 -.00000911  00000-0 -68575-4 0  9995,2 55317  70.0012 108.4015 0002664 265.8757  94.2098 14.98322477 61534,6950.216,96.107,573.933,570.23,0.0
55317.0,STARLINK-5265,PAYLOAD,2024-02-13 21:53:12,14.98328599,0.0002966,70.0001,107.5579,270.2497,89.8322,-7.5132e-05,-9.89e-06,0.0,0 STARLINK-5265,1 55317U 23010BA  24044.91194777 -.00000989  00000-0 -75132-4 0  9996,2 55317  70.0001 107.5579 0002966 270.2497  89.8322 14.98328599 61589,6950.197,96.107,574.124,570.001,0.0
55317.0,STARLINK-5265,PAYLOAD,2024-02-14 04:17:44,14.98331451,0.0002941,69.9999,106.8845,269.4656,90.6166,-5.4721e-05,-7.46e-06,0.0,0 STARLINK-5265,1 55317U 23010BA  24045.17898527 -.00000746  00000-0 -54721-4 0  9991,2 55317  69.9999 106.8845 0002941 269.4656  90.6166 14.98331451 60441,6950.188,96.107,574.097,570.009,0.0
